[
  {
    "COMMENT": "GENERATED VIA SPACETRACK.ORG API",
    "ORIGINATOR": "18 SPCS",
    "NORAD_CAT_ID": "46984",
    "OBJECT_NAME": "S6 MICHAEL FREILICH",
    "OBJECT_TYPE": "PAYLOAD",
    "CLASSIFICATION_TYPE": "U",
    "INTLDES": "20086A",
    "EPOCH": "2023-05-16 04:48:44",
    "EPOCH_MICROSECONDS": "983296",
    "MEAN_MOTION": "12.80931539",
    "ECCENTRICITY": "0.0007997",
    "INCLINATION": "66.045",
    "RA_OF_ASC_NODE": "317.9054",
    "ARG_OF_PERICENTER": "263.2138",
    "MEAN_ANOMALY": "96.7967",
    "EPHEMERIS_TYPE": "0",
    "ELEMENT_SET_NO": "999",
    "REV_AT_EPOCH": "11598",
    "BSTAR": "0",
    "MEAN_MOTION_DOT": "-0.00000061",
    "MEAN_MOTION_DDOT": "0",
    "FILE": "3909096",
    "TLE_LINE0": "0 S6 MICHAEL FREILICH",
    "TLE_LINE1": "1 46984U 20086A   23136.20052064 -.00000061  00000-0  00000+0 0  9998",
    "TLE_LINE2": "2 46984  66.0450 317.9054 0007997 263.2138  96.7967 12.80931539115989",
    "OBJECT_ID": "2020-086A",
    "OBJECT_NUMBER": "46984",
    "SEMIMAJOR_AXIS": "7715.864",
    "PERIOD": "112.418",
    "APOGEE": "1343.899",
    "PERIGEE": "1331.559",
    "DECAYED": "0"
  },
  {
    "COMMENT": "GENERATED VIA SPACETRACK.ORG API",
    "ORIGINATOR": "18 SPCS",
    "NORAD_CAT_ID": "46984",
    "OBJECT_NAME": "S6 MICHAEL FREILICH",
    "OBJECT_TYPE": "PAYLOAD",
    "CLASSIFICATION_TYPE": "U",
    "INTLDES": "20086A",
    "EPOCH": "2023-05-16 12:18:27",
    "EPOCH_MICROSECONDS": "999648",
    "MEAN_MOTION": "12.80931562",
    "ECCENTRICITY": "0.0008034",
    "INCLINATION": "66.045",
    "RA_OF_ASC_NODE": "317.2564",
    "ARG_OF_PERICENTER": "263.4337",
    "MEAN_ANOMALY": "96.5769",
    "EPHEMERIS_TYPE": "0",
    "ELEMENT_SET_NO": "999",
    "REV_AT_EPOCH": "11602",
    "BSTAR": "0",
    "MEAN_MOTION_DOT": "-0.00000061",
    "MEAN_MOTION_DDOT": "0",
    "FILE": "3909472",
    "TLE_LINE0": "0 S6 MICHAEL FREILICH",
    "TLE_LINE1": "1 46984U 20086A   23136.51282407 -.00000061  00000-0  00000-0 0  9999",
    "TLE_LINE2": "2 46984  66.0450 317.2564 0008034 263.4337  96.5769 12.80931562116024",
    "OBJECT_ID": "2020-086A",
    "OBJECT_NUMBER": "46984",
    "SEMIMAJOR_AXIS": "7715.864",
    "PERIOD": "112.418",
    "APOGEE": "1343.928",
    "PERIGEE": "1331.530",
    "DECAYED": "0"
  },
  {
    "COMMENT": "GENERATED VIA SPACETRACK.ORG API",
    "ORIGINATOR": "18 SPCS",
    "NORAD_CAT_ID": "46984",
    "OBJECT_NAME": "S6 MICHAEL FREILICH",
    "OBJECT_TYPE": "PAYLOAD",
    "CLASSIFICATION_TYPE": "U",
    "INTLDES": "20086A",
    "EPOCH": "2023-05-16 17:55:45",
    "EPOCH_MICROSECONDS": "249600",
    "MEAN_MOTION": "12.80931575",
    "ECCENTRICITY": "0.0008037",
    "INCLINATION": "66.045",
    "RA_OF_ASC_NODE": "316.7702",
    "ARG_OF_PERICENTER": "263.4021",
    "MEAN_ANOMALY": "96.6082",
    "EPHEMERIS_TYPE": "0",
    "ELEMENT_SET_NO": "999",
    "REV_AT_EPOCH": "11605",
    "BSTAR": "0",
    "MEAN_MOTION_DOT": "-0.00000061",
    "MEAN_MOTION_DDOT": "0",
    "FILE": "3909742",
    "TLE_LINE0": "0 S6 MICHAEL FREILICH",
    "TLE_LINE1": "1 46984U 20086A   23136.74705150 -.00000061  00000-0  00000-0 0  9999",
    "TLE_LINE2": "2 46984  66.0450 316.7702 0008037 263.4021  96.6082 12.80931575116051",
    "OBJECT_ID": "2020-086A",
    "OBJECT_NUMBER": "46984",
    "SEMIMAJOR_AXIS": "7715.864",
    "PERIOD": "112.418",
    "APOGEE": "1343.930",
    "PERIGEE": "1331.528",
    "DECAYED": "0"
  },
  {
    "COMMENT": "GENERATED VIA SPACETRACK.ORG API",
    "ORIGINATOR": "18 SPCS",
    "NORAD_CAT_ID": "46984",
    "OBJECT_NAME": "S6 MICHAEL FREILICH",
    "OBJECT_TYPE": "PAYLOAD",
    "CLASSIFICATION_TYPE": "U",
    "INTLDES": "20086A",
    "EPOCH": "2023-05-17 05:10:19",
    "EPOCH_MICROSECONDS": "752960",
    "MEAN_MOTION": "12.80931518",
    "ECCENTRICITY": "0.0007919",
    "INCLINATION": "66.0412",
    "RA_OF_ASC_NODE": "315.7845",
    "ARG_OF_PERICENTER": "270.3057",
    "MEAN_ANOMALY": "89.7051",
    "EPHEMERIS_TYPE": "0",
    "ELEMENT_SET_NO": "999",
    "REV_AT_EPOCH": "11611",
    "BSTAR": "0.000080747",
    "MEAN_MOTION_DOT": "-0.00000042",
    "MEAN_MOTION_DDOT": "0",
    "FILE": "3910188",
    "TLE_LINE0": "0 S6 MICHAEL FREILICH",
    "TLE_LINE1": "1 46984U 20086A   23137.21550640 -.00000042  00000-0  80747-4 0  9993",
    "TLE_LINE2": "2 46984  66.0412 315.7845 0007919 270.3057  89.7051 12.80931518116113",
    "OBJECT_ID": "2020-086A",
    "OBJECT_NUMBER": "46984",
    "SEMIMAJOR_AXIS": "7715.864",
    "PERIOD": "112.418",
    "APOGEE": "1343.839",
    "PERIGEE": "1331.619",
    "DECAYED": "0"
  },
  {
    "COMMENT": "GENERATED VIA SPACETRACK.ORG API",
    "ORIGINATOR": "18 SPCS",
    "NORAD_CAT_ID": "46984",
    "OBJECT_NAME": "S6 MICHAEL FREILICH",
    "OBJECT_TYPE": "PAYLOAD",
    "CLASSIFICATION_TYPE": "U",
    "INTLDES": "20086A",
    "EPOCH": "2023-05-17 20:09:45",
    "EPOCH_MICROSECONDS": "771840",
    "MEAN_MOTION": "12.80931521",
    "ECCENTRICITY": "0.000792",
    "INCLINATION": "66.0413",
    "RA_OF_ASC_NODE": "314.4871",
    "ARG_OF_PERICENTER": "270.2633",
    "MEAN_ANOMALY": "89.7475",
    "EPHEMERIS_TYPE": "0",
    "ELEMENT_SET_NO": "999",
    "REV_AT_EPOCH": "11606",
    "BSTAR": "0.000054734",
    "MEAN_MOTION_DOT": "-0.00000048",
    "MEAN_MOTION_DDOT": "0",
    "FILE": "3910633",
    "TLE_LINE0": "0 S6 MICHAEL FREILICH",
    "TLE_LINE1": "1 46984U 20086A   23137.84011310 -.00000048  00000-0  54734-4 0  9991",
    "TLE_LINE2": "2 46984  66.0413 314.4871 0007920 270.2633  89.7475 12.80931521116068",
    "OBJECT_ID": "2020-086A",
    "OBJECT_NUMBER": "46984",
    "SEMIMAJOR_AXIS": "7715.864",
    "PERIOD": "112.418",
    "APOGEE": "1343.840",
    "PERIGEE": "1331.618",
    "DECAYED": "0"
  },
  {
    "COMMENT": "GENERATED VIA SPACETRACK.ORG API",
    "ORIGINATOR": "18 SPCS",
    "NORAD_CAT_ID": "46984",
    "OBJECT_NAME": "S6 MICHAEL FREILICH",
    "OBJECT_TYPE": "PAYLOAD",
    "CLASSIFICATION_TYPE": "U",
    "INTLDES": "20086A",
    "EPOCH": "2023-05-18 13:01:37",
    "EPOCH_MICROSECONDS": "538976",
    "MEAN_MOTION": "12.80931539",
    "ECCENTRICITY": "0.0007918",
    "INCLINATION": "66.0413",
    "RA_OF_ASC_NODE": "313.0275",
    "ARG_OF_PERICENTER": "270.2291",
    "MEAN_ANOMALY": "89.7817",
    "EPHEMERIS_TYPE": "0",
    "ELEMENT_SET_NO": "999",
    "REV_AT_EPOCH": "11628",
    "BSTAR": "0.00001256",
    "MEAN_MOTION_DOT": "-0.00000058",
    "MEAN_MOTION_DDOT": "0",
    "FILE": "3911130",
    "TLE_LINE0": "0 S6 MICHAEL FREILICH",
    "TLE_LINE1": "1 46984U 20086A   23138.54279559 -.00000058  00000-0  12560-4 0  9992",
    "TLE_LINE2": "2 46984  66.0413 313.0275 0007918 270.2291  89.7817 12.80931539116281",
    "OBJECT_ID": "2020-086A",
    "OBJECT_NUMBER": "46984",
    "SEMIMAJOR_AXIS": "7715.864",
    "PERIOD": "112.418",
    "APOGEE": "1343.838",
    "PERIGEE": "1331.620",
    "DECAYED": "0"
  },
  {
    "COMMENT": "GENERATED VIA SPACETRACK.ORG API",
    "ORIGINATOR": "18 SPCS",
    "NORAD_CAT_ID": "46984",
    "OBJECT_NAME": "S6 MICHAEL FREILICH",
    "OBJECT_TYPE": "PAYLOAD",
    "CLASSIFICATION_TYPE": "U",
    "INTLDES": "20086A",
    "EPOCH": "2023-05-18 18:38:54",
    "EPOCH_MICROSECONDS": "794976",
    "MEAN_MOTION": "12.80931543",
    "ECCENTRICITY": "0.000792",
    "INCLINATION": "66.0413",
    "RA_OF_ASC_NODE": "312.541",
    "ARG_OF_PERICENTER": "270.2429",
    "MEAN_ANOMALY": "89.7679",
    "EPHEMERIS_TYPE": "0",
    "ELEMENT_SET_NO": "999",
    "REV_AT_EPOCH": "11618",
    "BSTAR": "0.000017654",
    "MEAN_MOTION_DOT": "-0.00000057",
    "MEAN_MOTION_DDOT": "0",
    "FILE": "3911388",
    "TLE_LINE0": "0 S6 MICHAEL FREILICH",
    "TLE_LINE1": "1 46984U 20086A   23138.77702309 -.00000057  00000-0  17654-4 0  9999",
    "TLE_LINE2": "2 46984  66.0413 312.5410 0007920 270.2429  89.7679 12.80931543116182",
    "OBJECT_ID": "2020-086A",
    "OBJECT_NUMBER": "46984",
    "SEMIMAJOR_AXIS": "7715.864",
    "PERIOD": "112.418",
    "APOGEE": "1343.840",
    "PERIGEE": "1331.618",
    "DECAYED": "0"
  },
  {
    "COMMENT": "GENERATED VIA SPACETRACK.ORG API",
    "ORIGINATOR": "18 SPCS",
    "NORAD_CAT_ID": "46984",
    "OBJECT_NAME": "S6 MICHAEL FREILICH",
    "OBJECT_TYPE": "PAYLOAD",
    "CLASSIFICATION_TYPE": "U",
    "INTLDES": "20086A",
    "EPOCH": "2023-05-19 17:08:03",
    "EPOCH_MICROSECONDS": "823296",
    "MEAN_MOTION": "12.80931537",
    "ECCENTRICITY": "0.0007921",
    "INCLINATION": "66.0412",
    "RA_OF_ASC_NODE": "310.5948",
    "ARG_OF_PERICENTER": "270.2231",
    "MEAN_ANOMALY": "89.7876",
    "EPHEMERIS_TYPE": "0",
    "ELEMENT_SET_NO": "999",
    "REV_AT_EPOCH": "11643",
    "BSTAR": "-0.0000042497",
    "MEAN_MOTION_DOT": "-0.00000062",
    "MEAN_MOTION_DDOT": "0",
    "FILE": "3912240",
    "TLE_LINE0": "0 S6 MICHAEL FREILICH",
    "TLE_LINE1": "1 46984U 20086A   23139.71393314 -.00000062  00000-0 -42497-5 0  9997",
    "TLE_LINE2": "2 46984  66.0412 310.5948 0007921 270.2231  89.7876 12.80931537116437",
    "OBJECT_ID": "2020-086A",
    "OBJECT_NUMBER": "46984",
    "SEMIMAJOR_AXIS": "7715.864",
    "PERIOD": "112.418",
    "APOGEE": "1343.841",
    "PERIGEE": "1331.617",
    "DECAYED": "0"
  }
]